[{"OBJECT_NAME":"HAWK-C","OBJECT_ID":"2018-099AT","EPOCH":"2026-03-09T16:08:34.251360","MEAN_MOTION":15.26407167,"ECCENTRICITY":0.00403625,"INCLINATION":97.4027,"RA_OF_ASC_NODE":122.6817,"ARG_OF_PERICENTER":277.4052,"MEAN_ANOMALY":82.2601,"EPHEMERIS_TYPE":0,"CLASSIFICATION_TYPE":"U","NORAD_CAT_ID":43799,"ELEMENT_SET_NO":999,"REV_AT_EPOCH":39872,"BSTAR":0.00035662773,"MEAN_MOTION_DOT":9.431e-5,"MEAN_MOTION_DDOT":0},{"OBJECT_NAME":"STARLINK-34868","OBJECT_ID":"2025-210AC","EPOCH":"2026-03-09T23:23:43.151136","MEAN_MOTION":15.30210745,"ECCENTRICITY":0.0001607,"INCLINATION":53.1624,"RA_OF_ASC_NODE":305.8244,"ARG_OF_PERICENTER":113.3533,"MEAN_ANOMALY":246.7637,"EPHEMERIS_TYPE":0,"CLASSIFICATION_TYPE":"U","NORAD_CAT_ID":65648,"ELEMENT_SET_NO":999,"REV_AT_EPOCH":2777,"BSTAR":0.0020620157,"MEAN_MOTION_DOT":0.00061237,"MEAN_MOTION_DDOT":0}]
